QIANFAN-25              
1 61558U 24185G   25206.50281593  .00000312  00000+0  18297-3 0  9998
2 61558  88.9797  94.0806 0008985  39.8930 320.2911 14.05747986 49804
QIANFAN-26              
1 61559U 24185H   25206.50774072  .00000134  00000+0  12101-3 0  9998
2 61559  88.9809  94.9025 0007989  76.5037 283.7019 13.77717241 49362
QIANFAN-27              
1 61560U 24185J   25206.45492743  .00000409  00000+0  16193-3 0  9996
2 61560  88.9798  93.4088 0009977  41.3343 318.8605 14.27116769 50157
QIANFAN-28              
1 61561U 24185K   25206.49785025  .00000684  00000+0  27168-3 0  9998
2 61561  88.9816  93.3964 0009015  43.2268 316.9632 14.27671505 50165
QIANFAN-29              
1 61562U 24185L   25206.75717174  .00000158  00000+0  22534-3 0  9996
2 61562  88.9804  95.7876 0012120  93.0524 267.2014 13.50952910 48896
QIANFAN-30              
1 61563U 24185M   25206.47771098  .00000134  00000+0  19253-3 0  9999
2 61563  88.9810  95.2915 0009726  81.1019 279.1232 13.49924963 49146
QIANFAN-31              
1 61564U 24185N   25206.45864901  .00000157  00000+0  20094-3 0  9994
2 61564  88.9792  95.3178 0009394  79.4730 280.7483 13.57902767 49120
QIANFAN-32              
1 61565U 24185P   25206.45000310  .00000160  00000+0  22997-3 0  9999
2 61565  88.9853  95.3859 0011312 102.2848 257.9570 13.50681308 49102
